{
  "links": {
    "next": "https://api.nasa.gov/neo/rest/v1/feed?start_date=2016-11-26&end_date=2016-11-26&detailed=true&api_key=DEMO_KEY",
    "prev": "https://api.nasa.gov/neo/rest/v1/feed?start_date=2016-11-24&end_date=2016-11-24&detailed=true&api_key=DEMO_KEY",
    "self": "https://api.nasa.gov/neo/rest/v1/feed?start_date=2016-11-25&end_date=2016-11-25&detailed=true&api_key=DEMO_KEY"
  },
  "element_count": 9,
  "near_earth_objects": {
    "2016-11-25": [
      {
        "links": {
          "self": "https://api.nasa.gov/neo/rest/v1/neo/3763930?api_key=DEMO_KEY"
        },
        "neo_reference_id": "3763930",
        "name": "(2016 WG)",
        "nasa_jpl_url": "http://ssd.jpl.nasa.gov/sbdb.cgi?sstr=3763930",
        "absolute_magnitude_h": 23.26,
        "estimated_diameter": {
          "kilometers": {
            "estimated_diameter_min": 0.0592318063,
            "estimated_diameter_max": 0.1324463452
          },
          "meters": {
            "estimated_diameter_min": 59.2318062676,
            "estimated_diameter_max": 132.4463452445
          },
          "miles": {
            "estimated_diameter_min": 0.0368049267,
            "estimated_diameter_max": 0.082298318
          },
          "feet": {
            "estimated_diameter_min": 194.330079275,
            "estimated_diameter_max": 434.5352673318
          }
        },
        "is_potentially_hazardous_asteroid": false,
        "close_approach_data": [
          {
            "close_approach_date": "2016-11-25",
            "epoch_date_close_approach": 1480060800000,
            "relative_velocity": {
              "kilometers_per_second": "23.2895494637",
              "kilometers_per_hour": "83842.3780693981",
              "miles_per_hour": "52096.3931953991"
            },
            "miss_distance": {
              "astronomical": "0.0107892094",
              "lunar": "4.1970024109",
              "kilometers": "1614042.75",
              "miles": "1002919.625"
            },
            "orbiting_body": "Earth"
          }
        ],
        "orbital_data": {
          "orbit_id": "6",
          "orbit_determination_date": "2016-11-24 06:20:56",
          "orbit_uncertainty": "7",
          "minimum_orbit_intersection": ".00158487",
          "jupiter_tisserand_invariant": "3.640",
          "epoch_osculation": "2457800.5",
          "eccentricity": ".7417314790132036",
          "semi_major_axis": "1.829213357241112",
          "inclination": ".2203937462163025",
          "ascending_node_longitude": "294.6446795770157",
          "orbital_period": "903.6390137325054",
          "perihelion_distance": ".4724282283439545",
          "perihelion_argument": "231.5553797831742",
          "aphelion_distance": "3.18599848613827",
          "perihelion_time": "2457764.383540641194",
          "mean_anomaly": "14.38840640076542",
          "mean_motion": ".3983891736956002",
          "equinox": "J2000"
        }
      },
      {
        "links": {
          "self": "https://api.nasa.gov/neo/rest/v1/neo/3764704?api_key=DEMO_KEY"
        },
        "neo_reference_id": "3764704",
        "name": "(2016 WV2)",
        "nasa_jpl_url": "http://ssd.jpl.nasa.gov/sbdb.cgi?sstr=3764704",
        "absolute_magnitude_h": 26.372,
        "estimated_diameter": {
          "kilometers": {
            "estimated_diameter_min": 0.0141304169,
            "estimated_diameter_max": 0.0315965728
          },
          "meters": {
            "estimated_diameter_min": 14.1304169411,
            "estimated_diameter_max": 31.5965728306
          },
          "miles": {
            "estimated_diameter_min": 0.0087802313,
            "estimated_diameter_max": 0.0196331941
          },
          "feet": {
            "estimated_diameter_min": 46.3596371169,
            "estimated_diameter_max": 103.6633000057
          }
        },
        "is_potentially_hazardous_asteroid": false,
        "close_approach_data": [
          {
            "close_approach_date": "2016-11-25",
            "epoch_date_close_approach": 1480060800000,
            "relative_velocity": {
              "kilometers_per_second": "7.7095634454",
              "kilometers_per_hour": "27754.4284035452",
              "miles_per_hour": "17245.5224710806"
            },
            "miss_distance": {
              "astronomical": "0.017199066",
              "lunar": "6.6904363632",
              "kilometers": "2572943.5",
              "miles": "1598753"
            },
            "orbiting_body": "Earth"
          }
        ],
        "orbital_data": {
          "orbit_id": "1",
          "orbit_determination_date": "2016-11-24 07:12:04",
          "orbit_uncertainty": "7",
          "minimum_orbit_intersection": ".00785142",
          "jupiter_tisserand_invariant": "3.352",
          "epoch_osculation": "2457800.5",
          "eccentricity": ".5707233992294455",
          "semi_major_axis": "2.303393651903979",
          "inclination": ".5032695152175368",
          "ascending_node_longitude": "305.5089857968811",
          "orbital_period": "1276.881736670435",
          "perihelion_distance": ".9887929971258143",
          "perihelion_argument": "132.9927915358325",
          "aphelion_distance": "3.617994306682145",
          "perihelion_time": "2457729.762716925518",
          "mean_anomaly": "19.94344595546989",
          "mean_motion": ".2819368385193817",
          "equinox": "J2000"
        }
      },
      {
        "links": {
          "self": "https://api.nasa.gov/neo/rest/v1/neo/2141527?api_key=DEMO_KEY"
        },
        "neo_reference_id": "2141527",
        "name": "141527 (2002 FG7)",
        "nasa_jpl_url": "http://ssd.jpl.nasa.gov/sbdb.cgi?sstr=2141527",
        "absolute_magnitude_h": 18.9,
        "estimated_diameter": {
          "kilometers": {
            "estimated_diameter_min": 0.4411182,
            "estimated_diameter_max": 0.9863702813
          },
          "meters": {
            "estimated_diameter_min": 441.1181999969,
            "estimated_diameter_max": 986.3702813054
          },
          "miles": {
            "estimated_diameter_min": 0.2740980571,
            "estimated_diameter_max": 0.6129018881
          },
          "feet": {
            "estimated_diameter_min": 1447.2382352778,
            "estimated_diameter_max": 3236.1230737181
          }
        },
        "is_potentially_hazardous_asteroid": true,
        "close_approach_data": [
          {
            "close_approach_date": "2016-11-25",
            "epoch_date_close_approach": 1480060800000,
            "relative_velocity": {
              "kilometers_per_second": "20.194981749",
              "kilometers_per_hour": "72701.9342963057",
              "miles_per_hour": "45174.1546742795"
            },
            "miss_distance": {
              "astronomical": "0.4287196776",
              "lunar": "166.7719573975",
              "kilometers": "64135552",
              "miles": "39851984"
            },
            "orbiting_body": "Earth"
          }
        ],
        "orbital_data": {
          "orbit_id": "67",
          "orbit_determination_date": "2016-06-30 06:17:24",
          "orbit_uncertainty": "0",
          "minimum_orbit_intersection": ".041878",
          "jupiter_tisserand_invariant": "4.267",
          "epoch_osculation": "2457800.5",
          "eccentricity": ".6267015606839722",
          "semi_major_axis": "1.513879219313558",
          "inclination": "9.207856224736108",
          "ascending_node_longitude": "187.6279493796023",
          "orbital_period": "680.3545102790468",
          "perihelion_distance": ".5651287498827179",
          "perihelion_argument": "247.5046196045714",
          "aphelion_distance": "2.462629688744399",
          "perihelion_time": "2457723.694901905099",
          "mean_anomaly": "40.64033514354725",
          "mean_motion": ".5291359057094313",
          "equinox": "J2000"
        }
      }
    ]
  }
}
